IRIDIUM 171             
1 43929U 19002H   23360.10086110  .00000451  00000+0  15399-3 0  9999
2 43929  86.3977  11.6185 0002100  90.8628 269.2808 14.34220424259374
IRIDIUM 170             
1 43930U 19002J   23359.58297064  .00001698  00000+0  26522-3 0  9997
2 43930  86.6097  11.6817 0002526  88.0661 272.0845 14.72276955266162
IRIDIUM 167             
1 43931U 19002K   23360.09451674  .00000464  00000+0  15872-3 0  9991
2 43931  86.3968  11.4293 0002083  89.9595 270.1839 14.34221519259378
IRIDIUM 181             
1 56726U 23068S   23359.70660479  .00000608  00000+0  17374-3 0  9994
2 56726  86.8626  56.8520 0002044  70.3077 289.8345 14.43587103 31968
IRIDIUM 177             
1 56727U 23068T   23359.61013326  .00002291  00000+0  29788-3 0  9990
2 56727  86.1975  38.2342 0002384  98.0047 262.1445 14.80248973 32557
IRIDIUM 174             
1 56728U 23068U   23360.14552425  .00002152  00000+0  27954-3 0  9998
2 56728  86.1980  38.0696 0002282  98.0646 262.0834 14.80260723 32633
IRIDIUM 178             
1 56729U 23068V   23359.66690855  .00002216  00000+0  28789-3 0  9992
2 56729  86.5780  47.4874 0002465  97.3521 262.7981 14.80268090 32562
IRIDIUM 179             
1 56730U 23068W   23360.13469098  .00002112  00000+0  27435-3 0  9993
2 56730  86.6788  49.2290 0002477  99.3100 260.8402 14.80267312 32634
